#aV2008 10 21  0  0   .00000000      96 DD+AD WGS84 FIT  NGA
## 1502 172800.00000000   900.00000000 54760  .0000000000000
+   31     2  3  4  5  6  7  8  9 10 11 12 13 14 15 16 17 18
+         19 20 21 22 23 24 25 26 27 28 29 30 31 32  0  0  0
+          0  0  0  0  0  0  0  0  0  0  0  0  0  0  0  0  0
+          0  0  0  0  0  0  0  0  0  0  0  0  0  0  0  0  0
+          0  0  0  0  0  0  0  0  0  0  0  0  0  0  0  0  0
++         0  0  0  0  0  0  0  0  0  0  0  0  0  0  0  0  0
++         0  0  0  0  0  0  0  0  0  0  0  0  0  0  0  0  0
++         0  0  0  0  0  0  0  0  0  0  0  0  0  0  0  0  0
++         0  0  0  0  0  0  0  0  0  0  0  0  0  0  0  0  0
++         0  0  0  0  0  0  0  0  0  0  0  0  0  0  0  0  0
%c cc cc ccc ccc cccc cccc cccc cccc ccccc ccccc ccccc ccccc
%c cc cc ccc ccc cccc cccc cccc cccc ccccc ccccc ccccc ccccc
%f  0.0000000  0.000000000  0.00000000000  0.000000000000000
%f  0.0000000  0.000000000  0.00000000000  0.000000000000000
%i    0    0    0    0      0      0      0      0         0
%i    0    0    0    0      0      0      0      0         0
/*      NGA, ST. LOUIS,MO.                                  
/*   EPHEMERIS COMPUTED FROM  3 DAYS OF DATA                
/* CCCCCCCCCCCCCCCCCCCCCCCCCCCCCCCCCCCCCCCCCCCCCCCCCCCCCCCCC
/* CCCCCCCCCCCCCCCCCCCCCCCCCCCCCCCCCCCCCCCCCCCCCCCCCCCCCCCCC
*  2008 10 21 11 15   .00000000                                                 
P  2   5425.312556  18195.189796  18585.060331    178.643460                    
V  2 -21716.994043  -9873.263219  15518.516753      -.026468                    
P  3   1891.137500 -19043.400367 -18563.637618    299.948267                    
V  3  19688.858596 -12509.275561  15431.254071       .053168                    
P  4 -10499.562041  11835.352606  21251.714785   -207.301195                    
V  4 -23690.916126 -13536.664547  -3776.427138      -.116574                    
P  5  14611.783759  12588.035318  18020.791368   -310.510262                    
V  5    910.257574  23542.211235 -16781.808450      -.540979                    
P  6   7709.055730 -19492.097803 -16122.669231    156.003377                    
V  6  18747.856256  -9561.118931  20295.352078      -.049206                    
P  7 -24083.081196  -5253.831033 -10053.472674     22.291150                    
V  7 -10015.615243  -8128.539697  28208.858786       .008232                    
P  8 -17860.754382   4077.878849 -19485.357739   -174.925618                    
V  8 -20302.382686 -13471.968767  15365.995552      -.015200                    
P  9  20977.689432  15369.402136  -6335.847777     20.905972                    
V  9  -7364.914078  -1330.186912 -30622.151974       .019723                    
P 10   1260.595707  26288.988465  -1915.910037     -6.310646                    
V 10  -3081.079118   2279.847183  31859.261933      -.004509                    
P 11 -23486.318732 -11741.858715  -5237.627963     17.376638                    
V 11   7506.427668  -2385.451227 -28944.877408      -.008466                    
P 12  11465.772943  17906.288258  16051.076872   -345.264061                    
V 12  -1368.939310  20228.842997 -21592.229955       .020526                    
P 13 -23200.351311   3397.115531  12356.763437    274.731025                    
V 13  13240.558579  -8786.584490  27026.875396       .010502                    
P 14  20314.744121 -15960.946067   6012.334886   -204.690114                    
V 14   7466.448100  -1997.881800 -31234.078349       .048644                    
P 15   7240.978568  13474.924820 -21681.791036   -197.671605                    
V 15 -23492.083673  14518.688736   1198.827887      -.063329                    
P 16   2968.055380 -25920.928207   4382.936196    100.170497                    
V 16   2778.112138   5517.865312  31363.302468      -.022164                    
P 17 -20820.563992  15761.394961   4339.792733     39.658007                    
V 17  -6222.826509    240.815910 -31204.461321       .004070                    
P 18  15342.761245  -3275.564125 -21191.498963   -121.209368                    
V 18    304.617961  27496.362068  -4354.100446       .039748                    
P 19  -8113.572090 -12964.734533 -21652.540630     35.670235                    
V 19  24583.770458 -12682.019656  -1403.478622      -.000239                    
P 20 -13424.383721 -14420.985348  17717.235650    101.290689                    
V 20    927.489603 -22816.372030 -17716.466850      -.010489                    
P 21  22863.658664   1531.266930 -13717.609083     45.814032                    
V 21  14035.791134  10890.329720  23614.944623      -.015037                    
P 22  12001.377238 -17185.814084 -16111.936166    210.208197                    
V 22   1942.426276  20875.493421 -20671.390107      -.003601                    
P 23 -18147.055092  -4231.721960  18979.277875    377.448424                    
V 23  20072.069145 -13361.259065  15903.700873       .013008                    
P 24  23000.086921  12863.547937  -1567.397578    134.868157                    
V 24    118.638880   3986.332105  31661.240807       .030256                    
P 25 -24769.131865  -8926.392099  -2315.129897    -43.634677                    
V 25  -2007.514349  -3897.494578  31829.955426       .342112                    
P 26   1496.521450  15455.274697 -21959.290052      5.446914                    
V 26 -23773.607673  12204.249692   7647.697705       .049146                    
P 27 -23452.637562  -2266.511362 -11686.932757    226.742965                    
V 27 -13386.342415  -8767.026613  26898.004062       .029152                    
P 28 -12093.162421  15501.569495 -17300.111203    -23.221727                    
V 28  -1784.130785 -22882.992130 -19157.987825      -.002691                    
P 29  22155.723389   -892.080499  14702.204219    -33.561766                    
V 29 -14978.541380  11060.111522  23447.085950       .016313                    
P 30  15338.515671   2988.256127  21126.164794    103.273629                    
V 30   1280.958856  27676.760062  -4678.643183       .021648                    
P 31   6795.125587 -13499.683021  22044.686803    -33.755578                    
V 31  24173.875309  13047.983693    648.832800      -.022787                    
P 32  -8439.804057 -21230.519823  14144.143723    315.956630                    
V 32   2833.108876 -17000.663014 -24383.681975      -.006254                    
EOF
